MEAN_MOTION;ECCENTRICITY;INCLINATION;RA_OF_ASC_NODE;ARG_OF_PERICENTER;MEAN_ANOMALY;BSTAR;MEAN_MOTION_DOT;MEAN_MOTION_DDOT;TYPE
0.98733901;0.0015131;7.9252;49.6698;302.1884;69.1143;0;7.0E-8;0;Intelsat
0.98733903;0.0015114;7.9266;49.664;302.357;36.7786;0;1.5E-7;0;Intelsat
0.98733947;0.0015102;7.9277;49.6599;302.4751;277.1922;0;1.8E-7;0;Intelsat
0.9873405;0.0015092;7.9293;49.6537;302.6432;271.9261;0;2.0E-7;0;Intelsat
0.98734229;0.0015085;7.9309;49.6475;302.8123;266.1501;0;1.8E-7;0;Intelsat
0.98734494;0.0015081;7.9324;49.6416;302.9386;252.9787;0;1.1E-7;0;Intelsat
0.98734649;0.0015077;7.9332;49.6385;303.0081;74.5067;0;6.0E-8;0;Intelsat
0.98734813;0.0015077;7.9341;49.6351;303.0915;275.3035;0;0;0;Intelsat
0.98735147;0.0015077;7.9357;49.6291;303.2666;269.1781;0;-1.5E-7;0;Intelsat
0.98735548;0.0015077;7.9373;49.623;303.4573;278.6593;0;-3.5E-7;0;Intelsat
0.98735905;0.0015082;7.9388;49.6176;303.5873;242.8826;0;-5.5E-7;0;Intelsat
0.98736345;0.0015086;7.9404;49.6117;303.7967;247.6653;0;-8.1E-7;0;Intelsat
0.98736545;0.0015083;7.9412;49.6089;303.8838;57.9105;0;-9.3E-7;0;Intelsat
0.98736735;0.001509;7.942;49.606;303.9803;236.2169;0;-1.07E-6;0;Intelsat
0.98737148;0.0015094;7.9436;49.6002;304.1962;232.8585;0;-1.35E-6;0;Intelsat
0.98737173;0.0015096;7.9437;49.5998;304.2185;258.3257;0;-1.37E-6;0;Intelsat
0.9873736;0.0015093;7.9445;49.597;304.3299;76.6728;0;-1.51E-6;0;Intelsat
0.98737499;0.0015097;7.9451;49.5947;304.4159;215.092;0;-1.61E-6;0;Intelsat
0.9873753;0.00151;7.9453;49.594;304.4452;254.9098;0;-1.64E-6;0;Intelsat
0.98737811;0.0015098;7.9469;49.5886;304.6738;227.9907;0;-1.89E-6;0;Intelsat
0.98737838;0.0015098;7.947;49.5883;304.6932;251.5225;0;-1.9E-6;0;Intelsat
0.98738106;0.0015096;7.9487;49.5825;304.9505;253.0864;0;-2.14E-6;0;Intelsat
0.9873828;0.0015092;7.9503;49.5768;305.2115;244.7453;0;-2.34E-6;0;Intelsat
0.98738383;0.0015085;7.952;49.5709;305.4925;259.7726;0;-2.5E-6;0;Intelsat
0.98738385;0.0015073;7.9537;49.5652;305.7726;256.4422;0;-2.6E-6;0;Intelsat
0.98738285;0.0015058;7.9554;49.5594;306.0672;268.2785;0;-2.64E-6;0;Intelsat
0.98738102;0.0015039;7.957;49.554;306.3726;256.5203;0;-2.62E-6;0;Intelsat
0.98737979;0.0015038;7.9578;49.5512;306.5083;80.7599;0;-2.59E-6;0;Intelsat
0.98737821;0.0015022;7.9586;49.5485;306.6349;253.1147;0;-2.55E-6;0;Intelsat
0.98737648;0.0015021;7.9594;49.5458;306.7586;71.4564;0;-2.49E-6;0;Intelsat
0.98737475;0.0015;7.9602;49.543;306.9123;249.7042;0;-2.42E-6;0;Intelsat
0.98737057;0.0014976;7.9619;49.5373;307.1821;252.1141;0;-2.24E-6;0;Intelsat
0.98736594;0.001495;7.9635;49.5316;307.4113;260.7973;0;-2.0E-6;0;Intelsat
0.98736113;0.0014922;7.965;49.5261;307.6491;239.5415;0;-1.77E-6;0;Intelsat
0.9873561;0.001489;7.9666;49.5203;307.8644;236.1994;0;-1.49E-6;0;Intelsat
0.98735362;0.0014882;7.9674;49.5174;307.9216;54.5828;0;-1.35E-6;0;Intelsat
0.98735125;0.0014861;7.9682;49.5145;308.0458;232.8785;0;-1.2E-6;0;Intelsat
0.98734621;0.0014827;7.9699;49.5081;308.2466;255.0061;0;-9.0E-7;0;Intelsat
0.98734416;0.0014817;7.9707;49.5052;308.3059;73.4011;0;-7.5E-7;0;Intelsat
0.98734232;0.0014797;7.9715;49.5022;308.4065;251.6966;0;-6.2E-7;0;Intelsat
0.98733863;0.0014766;7.9733;49.4959;308.5874;278.5717;0;-3.4E-7;0;Intelsat
0.98733723;0.0014756;7.9742;49.4927;308.6465;119.5765;0;-2.1E-7;0;Intelsat
0.98733627;0.0014743;7.9749;49.4901;308.7126;273.7063;0;-1.2E-7;0;Intelsat
0.9873349;0.0014724;7.9763;49.4849;308.842;241.8204;0;5.0E-8;0;Intelsat
0.98733424;0.0014705;7.9779;49.4792;308.9682;238.5191;0;1.9E-7;0;Intelsat
0.98733423;0.0014688;7.9788;49.476;309.0516;83.794;0;2.4E-7;0;Intelsat
0.98733622;0.0014672;7.9811;49.468;309.2344;234.4282;0;3.0E-7;0;Intelsat
0.9873363;0.0014672;7.9811;49.4678;309.2436;251.2469;0;3.0E-7;0;Intelsat
0.98733839;0.0014657;7.9827;49.4624;309.3899;237.5187;0;2.7E-7;0;Intelsat
0.98734163;0.0014643;7.9843;49.4567;309.557;242.7637;0;1.8E-7;0;Intelsat
0.98734163;0.0014643;7.9843;49.4567;309.557;242.7637;0;1.8E-7;0;Intelsat
0.98734519;0.0014631;7.9858;49.4514;309.7241;229.3734;0;5.0E-8;0;Intelsat
0.98734729;0.0014616;7.9867;49.4484;309.8473;65.8205;0;-4.0E-8;0;Intelsat
0.98734921;0.0014617;7.9874;49.446;309.916;218.6887;0;-1.3E-7;0;Intelsat
0.98734973;0.0014615;7.9875;49.4455;309.9462;244.1175;0;-1.4E-7;0;Intelsat
0.98735632;0.0014588;7.9899;49.4373;310.2774;59.0843;0;-4.7E-7;0;Intelsat
0.98735836;0.0014585;7.9905;49.435;310.3588;211.9435;0;-5.7E-7;0;Intelsat
0.98735872;0.0014584;7.9907;49.4346;310.3804;237.3803;0;-5.9E-7;0;Intelsat
0.98736296;0.0014568;7.9921;49.4295;310.5908;208.5813;0;-8.2E-7;0;Intelsat
0.98736328;0.0014568;7.9923;49.429;310.6125;241.086;0;-8.5E-7;0;Intelsat
0.98736763;0.0014549;7.994;49.4233;310.8607;253.0866;0;-1.11E-6;0;Intelsat
0.98736942;0.0014537;7.9948;49.4205;310.9979;74.4179;0;-1.23E-6;0;Intelsat
0.98737287;0.0014516;7.9964;49.4152;311.2489;71.0366;0;-1.47E-6;0;Intelsat
0.9873744;0.0014501;7.9972;49.4125;311.3743;249.3058;0;-1.58E-6;0;Intelsat
0.987378;0.0014469;7.9996;49.4046;311.7405;64.2131;0;-1.86E-6;0;Intelsat
0.98737877;0.0014445;8.0004;49.4019;311.8824;242.4968;0;-1.94E-6;0;Intelsat
0.98737896;0.0014442;8.0005;49.4015;311.8961;270.9392;0;-1.95E-6;0;Intelsat
0.9873797;0.0014409;8.002;49.3965;312.1511;249.3641;0;-2.08E-6;0;Intelsat
0.98737979;0.0014373;8.0036;49.3911;312.397;250.0768;0;-2.17E-6;0;Intelsat
0.98737866;0.0014326;8.0055;49.3847;312.6596;320.3948;0;-2.23E-6;0;Intelsat
0.98737758;0.001429;8.0067;49.3803;312.8677;244.8598;0;-2.24E-6;0;Intelsat
0.98737537;0.0014246;8.0083;49.3747;313.0816;253.2561;0;-2.21E-6;0;Intelsat
0.98737262;0.0014203;8.0098;49.3693;313.2721;237.4219;0;-2.16E-6;0;Intelsat
0.98736976;0.0014152;8.0114;49.3635;313.4581;244.4088;0;-2.06E-6;0;Intelsat
0.98736521;0.001409;8.0134;49.3563;313.6541;341.1018;0;-1.89E-6;0;Intelsat
0.98736277;0.0014054;8.0145;49.3522;313.7696;237.8184;0;-1.77E-6;0;Intelsat
0.98735914;0.0014012;8.016;49.3466;313.8822;234.5509;0;-1.58E-6;0;Intelsat
0.98735627;0.0013981;8.0172;49.3424;313.9594;141.0448;0;-1.43E-6;0;Intelsat
0.98735561;0.0013972;8.0175;49.3414;313.982;205.8515;0;-1.39E-6;0;Intelsat
0.98735533;0.0013968;8.0176;49.341;313.9931;231.2985;0;-1.37E-6;0;Intelsat
0.9873509;0.0013916;8.0197;49.3338;314.1065;341.0577;0;-1.08E-6;0;Intelsat
0.98734835;0.0013896;8.0208;49.3297;314.1586;250.3096;0;-9.0E-7;0;Intelsat
0.98734536;0.0013861;8.0226;49.3236;314.2548;294.8023;0;-6.4E-7;0;Intelsat
0.98734339;0.0013836;8.0239;49.3188;314.3281;243.8612;0;-4.5E-7;0;Intelsat
0.98734026;0.0013801;8.0271;49.3075;314.4924;266.9444;0;-6.0E-8;0;Intelsat
0.98733984;0.0013775;8.0287;49.3017;314.6285;291.3572;0;1.0E-7;0;Intelsat
0.98733959;0.0013751;8.0303;49.2962;314.7733;305.8587;0;2.0E-7;0;Intelsat
0.98734043;0.0013726;8.0318;49.291;314.9151;289.6577;0;2.6E-7;0;Intelsat
0.98734205;0.00137;8.0333;49.2859;315.0732;271.8279;0;2.8E-7;0;Intelsat
0.9873442;0.0013672;8.0348;49.2806;315.2473;258.8081;0;2.6E-7;0;Intelsat
0.98734479;0.0013671;8.0351;49.2794;315.2865;342.037;0;2.5E-7;0;Intelsat
0.98734758;0.0013648;8.0364;49.275;315.426;271.0859;0;1.8E-7;0;Intelsat
0.98735071;0.0013617;8.0378;49.2699;315.6152;256.5012;0;7.0E-8;0;Intelsat
0.98735445;0.0013582;8.0393;49.2647;315.8117;242.8531;0;-8.0E-8;0;Intelsat
0.9873589;0.0013548;8.0409;49.2592;316.0146;249.9593;0;-2.9E-7;0;Intelsat
0.98736479;0.00135;8.043;49.2519;316.2713;22.5449;0;-6.2E-7;0;Intelsat
0.9873673;0.0013479;8.0439;49.2489;316.3906;226.3099;0;-7.7E-7;0;Intelsat
0.98737143;0.0013438;8.0454;49.2435;316.5778;222.9443;0;-1.05E-6;0;Intelsat
0.98737554;0.0013385;8.047;49.2376;316.7719;245.0925;0;-1.36E-6;0;Intelsat
0.98737929;0.0013341;8.0485;49.2321;316.9337;249.0217;0;-1.65E-6;0;Intelsat
0.9873821;0.0013297;8.05;49.2265;317.0753;244.1415;0;-1.93E-6;0;Intelsat
0.98738439;0.0013232;8.0518;49.2196;317.2166;317.7834;0;-2.23E-6;0;Intelsat
0.98738537;0.0013185;8.053;49.2149;317.3253;253.0604;0;-2.4E-6;0;Intelsat
0.98738571;0.0013132;8.0545;49.2094;317.4131;234.6579;0;-2.56E-6;0;Intelsat
0.98738545;0.001311;8.0551;49.207;317.4269;21.7274;0;-2.61E-6;0;Intelsat
0.98738484;0.0013079;8.056;49.2034;317.4732;244.233;0;-2.67E-6;0;Intelsat
0.98738305;0.0013025;8.0575;49.1975;317.5178;247.8569;0;-2.72E-6;0;Intelsat
0.98738082;0.0012983;8.059;49.1921;317.5431;226.1186;0;-2.69E-6;0;Intelsat
0.9873807;0.001298;8.059;49.1918;317.5463;244.6712;0;-2.69E-6;0;Intelsat
0.98737738;0.0012935;8.0605;49.1861;317.5623;241.5142;0;-2.6E-6;0;Intelsat
0.98737338;0.0012898;8.0619;49.1807;317.5715;225.1223;0;-2.45E-6;0;Intelsat
0.98736873;0.0012858;8.0635;49.175;317.5804;235.2429;0;-2.23E-6;0;Intelsat
0.9873639;0.0012828;8.0649;49.1696;317.593;220.2731;0;-1.98E-6;0;Intelsat
0.98735713;0.0012787;8.0667;49.1627;317.6426;300.6856;0;-1.62E-6;0;Intelsat
0.98735283;0.0012766;8.0679;49.1583;317.6447;230.3937;0;-1.37E-6;0;Intelsat
0.98734719;0.0012731;8.0697;49.1518;317.7342;288.2245;0;-1.0E-6;0;Intelsat
0.98734339;0.0012703;8.071;49.1469;317.7774;244.7566;0;-7.1E-7;0;Intelsat
0.98733995;0.0012684;8.0725;49.1412;317.8528;241.5242;0;-4.2E-7;0;Intelsat
0.98733689;0.0012652;8.074;49.1357;317.9511;238.2652;0;-1.5E-7;0;Intelsat
0.98733634;0.0012645;8.0744;49.1344;317.9973;318.2895;0;-1.0E-7;0;Intelsat
0.98733471;0.0012615;8.0756;49.1298;318.0605;250.6903;0;8.0E-8;0;Intelsat
0.98733402;0.0012582;8.0771;49.1244;318.1635;235.6716;0;2.6E-7;0;Intelsat
0.98733428;0.0012557;8.0786;49.1189;318.2881;230.9974;0;3.8E-7;0;Intelsat
0.98733575;0.001254;8.0801;49.1133;318.4094;234.5852;0;4.4E-7;0;Intelsat
0.98733767;0.0012503;8.0816;49.1079;318.5329;221.9209;0;4.4E-7;0;Intelsat
0.98734084;0.0012461;8.0832;49.1021;318.6644;234.6317;0;3.8E-7;0;Intelsat
0.98734472;0.001241;8.0847;49.0965;318.7917;240.824;0;2.6E-7;0;Intelsat
0.9873491;0.0012366;8.0862;49.0909;318.9152;237.5177;0;8.0E-8;0;Intelsat
0.9873538;0.0012319;8.0876;49.0852;319.0208;234.2663;0;-1.4E-7;0;Intelsat
0.9873586;0.0012268;8.0891;49.0795;319.1174;231.0014;0;-3.9E-7;0;Intelsat
0.98736325;0.0012221;8.0906;49.0737;319.1932;227.78;0;-6.7E-7;0;Intelsat
0.98736751;0.0012169;8.0921;49.0678;319.2476;224.6005;0;-9.7E-7;0;Intelsat
